     2.11           N: GPS NAV DATA                         RINEX VERSION / TYPE
teqc  2019Feb25                         20221121 12:28:41UTCPGM / RUN BY / DATE
OSX ker:10.11.6|Core i5|gcc 4.3 -m64|OSX ker:10.10+|=+      COMMENT
    1.2107D-08  0.0000D+00 -1.1921D-07  0.0000D+00          ION ALPHA
    9.4208D+04  0.0000D+00 -1.9661D+05  0.0000D+00          ION BETA
    2.793967723846D-09 7.105427357601D-15   147456     1555 DELTA-UTC: A0,A1,T,W
                                                            END OF HEADER
29 09 10 24 23 59 44.0 6.878515705466D-05 3.183231456205D-12 0.000000000000D+00
    1.100000000000D+01-1.278125000000D+01 4.573761944115D-09 2.964146887496D+00
   -8.717179298401D-07 2.955223550089D-03 8.147209882736D-06 5.153583246231D+03
    6.047840000000D+05 7.636845111847D-08 2.232627492251D+00 3.352761268616D-08
    9.600024890770D-01 2.207812500000D+02-1.271642156291D+00-7.885685613315D-09
    2.757257707994D-10 1.000000000000D+00 1.554000000000D+03 0.000000000000D+00
    2.000000000000D+00 0.000000000000D+00-8.847564458847D-09 1.100000000000D+01
    6.023160000000D+05 4.000000000000D+00
